COSMOS 1743             
1 16719U 86034A   25302.19144752  .00035512  00000+0  65097-3 0  9995
2 16719  82.5379 210.7457 0009230  60.2327 299.9840 15.49084961159834
SL-14 R/B               
1 16792U 86046B   25302.45816663  .00000709  00000+0  79239-4 0  9999
2 16792  82.4845 204.1257 0021920 304.3076  55.6064 14.85418304106928
SL-14 R/B               
1 16882U 86055B   25302.33275848  .00000913  00000+0  10274-3 0  9990
2 16882  82.5199 250.0942 0020294  49.9103  63.4334 14.85455121 99867
AJISAI (EGS)            
1 16908U 86061A   25302.49806522 -.00000081  00000+0  11441-3 0  9996
2 16908  50.0064 136.7587 0011140 314.0764 134.0848 12.44514082451661
COSMOS 1812             
1 17295U 87003A   25302.52322647  .00063501  00000+0  59266-3 0  9990
2 17295  82.4915 339.5575 0003293 182.7961 177.3281 15.67070983123712
SL-14 R/B               
1 17567U 87024B   25302.47185054  .00000785  00000+0  87041-4 0  9996
2 17567  82.5305 216.0304 0017817 340.3537  19.6990 14.85956389 68642
COSMOS 1833             
1 17589U 87027A   25302.26091229 -.00000302  00000+0 -13568-3 0  9999
2 17589  70.9166 242.2752 0020461  35.0336 325.2127 14.13026290991748
SL-14 R/B               
1 17912U 87038B   25302.39936956  .00000878  00000+0  99534-4 0  9994
2 17912  82.5020  60.4530 0018112 236.2061 123.7431 14.85190778 59746
COSMOS 1844             
1 17973U 87041A   25302.43508743  .00000262  00000+0  16093-3 0  9994
2 17973  70.8976 311.0186 0032528 222.5616 137.2985 14.14507723985023
SL-14 R/B               
1 18153U 87055B   25302.53379100  .00000751  00000+0  83885-4 0  9991
2 18153  82.4962 112.6493 0022217  87.4096 272.9663 14.85448837 50467
COSMOS 1867             
1 18187U 87060A   25302.37981376  .00000027  00000+0  47659-4 0  9995
2 18187  65.0105 314.4283 0013779 266.7361  93.2147 14.31474875  1143
