CCSDS_OMM_VERS = 2.0
CREATION_DATE  = 
ORIGINATOR     = 

OBJECT_NAME    = COSMOS 1743
OBJECT_ID      = 1986-034A
CENTER_NAME    = EARTH
REF_FRAME      = TEME
TIME_SYSTEM    = UTC
MEAN_ELEMENT_THEORY = SGP/SGP4

EPOCH          = 2025-10-29T04:35:41.064864
MEAN_MOTION    = 15.49084960
ECCENTRICITY   = .000923
INCLINATION    = 82.5379
RA_OF_ASC_NODE = 210.7457
ARG_OF_PERICENTER = 60.2327
MEAN_ANOMALY   = 299.9840

EPHEMERIS_TYPE = 0
CLASSIFICATION_TYPE = U
NORAD_CAT_ID   = 16719
ELEMENT_SET_NO = 999
REV_AT_EPOCH   = 15983
BSTAR          = .65097E-3
MEAN_MOTION_DOT = .35512E-3
MEAN_MOTION_DDOT = 0

CCSDS_OMM_VERS = 2.0
CREATION_DATE  = 
ORIGINATOR     = 

OBJECT_NAME    = SL-14 R/B
OBJECT_ID      = 1986-046B
CENTER_NAME    = EARTH
REF_FRAME      = TEME
TIME_SYSTEM    = UTC
MEAN_ELEMENT_THEORY = SGP/SGP4

EPOCH          = 2025-10-29T10:59:45.596832
MEAN_MOTION    = 14.85418304
ECCENTRICITY   = .002192
INCLINATION    = 82.4845
RA_OF_ASC_NODE = 204.1257
ARG_OF_PERICENTER = 304.3076
MEAN_ANOMALY   = 55.6064

EPHEMERIS_TYPE = 0
CLASSIFICATION_TYPE = U
NORAD_CAT_ID   = 16792
ELEMENT_SET_NO = 999
REV_AT_EPOCH   = 10692
BSTAR          = .79239E-4
MEAN_MOTION_DOT = .709E-5
MEAN_MOTION_DDOT = 0

CCSDS_OMM_VERS = 2.0
CREATION_DATE  = 
ORIGINATOR     = 

OBJECT_NAME    = SL-14 R/B
OBJECT_ID      = 1986-055B
CENTER_NAME    = EARTH
REF_FRAME      = TEME
TIME_SYSTEM    = UTC
MEAN_ELEMENT_THEORY = SGP/SGP4

EPOCH          = 2025-10-29T07:59:10.331808
MEAN_MOTION    = 14.85455121
ECCENTRICITY   = .0020294
INCLINATION    = 82.5199
RA_OF_ASC_NODE = 250.0942
ARG_OF_PERICENTER = 49.9103
MEAN_ANOMALY   = 63.4334

EPHEMERIS_TYPE = 0
CLASSIFICATION_TYPE = U
NORAD_CAT_ID   = 16882
ELEMENT_SET_NO = 999
REV_AT_EPOCH   = 9986
BSTAR          = .10274E-3
MEAN_MOTION_DOT = .913E-5
MEAN_MOTION_DDOT = 0

CCSDS_OMM_VERS = 2.0
CREATION_DATE  = 
ORIGINATOR     = 

OBJECT_NAME    = AJISAI (EGS)
OBJECT_ID      = 1986-061A
CENTER_NAME    = EARTH
REF_FRAME      = TEME
TIME_SYSTEM    = UTC
MEAN_ELEMENT_THEORY = SGP/SGP4

EPOCH          = 2025-10-29T11:57:12.835008
MEAN_MOTION    = 12.44514082
ECCENTRICITY   = .001114
INCLINATION    = 50.0064
RA_OF_ASC_NODE = 136.7587
ARG_OF_PERICENTER = 314.0764
MEAN_ANOMALY   = 134.0848

EPHEMERIS_TYPE = 0
CLASSIFICATION_TYPE = U
NORAD_CAT_ID   = 16908
ELEMENT_SET_NO = 999
REV_AT_EPOCH   = 45166
BSTAR          = .11441E-3
MEAN_MOTION_DOT = -.81E-6
MEAN_MOTION_DDOT = 0

CCSDS_OMM_VERS = 2.0
CREATION_DATE  = 
ORIGINATOR     = 

OBJECT_NAME    = COSMOS 1812
OBJECT_ID      = 1987-003A
CENTER_NAME    = EARTH
REF_FRAME      = TEME
TIME_SYSTEM    = UTC
MEAN_ELEMENT_THEORY = SGP/SGP4

EPOCH          = 2025-10-29T12:33:26.767008
MEAN_MOTION    = 15.67070983
ECCENTRICITY   = .0003293
INCLINATION    = 82.4915
RA_OF_ASC_NODE = 339.5575
ARG_OF_PERICENTER = 182.7961
MEAN_ANOMALY   = 177.3281

EPHEMERIS_TYPE = 0
CLASSIFICATION_TYPE = U
NORAD_CAT_ID   = 17295
ELEMENT_SET_NO = 999
REV_AT_EPOCH   = 12371
BSTAR          = .59266E-3
MEAN_MOTION_DOT = .63501E-3
MEAN_MOTION_DDOT = 0

CCSDS_OMM_VERS = 2.0
CREATION_DATE  = 
ORIGINATOR     = 

OBJECT_NAME    = SL-14 R/B
OBJECT_ID      = 1987-024B
CENTER_NAME    = EARTH
REF_FRAME      = TEME
TIME_SYSTEM    = UTC
MEAN_ELEMENT_THEORY = SGP/SGP4

EPOCH          = 2025-10-29T11:19:27.886656
MEAN_MOTION    = 14.85956389
ECCENTRICITY   = .0017817
INCLINATION    = 82.5305
RA_OF_ASC_NODE = 216.0304
ARG_OF_PERICENTER = 340.3537
MEAN_ANOMALY   = 19.6990

EPHEMERIS_TYPE = 0
CLASSIFICATION_TYPE = U
NORAD_CAT_ID   = 17567
ELEMENT_SET_NO = 999
REV_AT_EPOCH   = 6864
BSTAR          = .87041E-4
MEAN_MOTION_DOT = .785E-5
MEAN_MOTION_DDOT = 0

CCSDS_OMM_VERS = 2.0
CREATION_DATE  = 
ORIGINATOR     = 

OBJECT_NAME    = COSMOS 1833
OBJECT_ID      = 1987-027A
CENTER_NAME    = EARTH
REF_FRAME      = TEME
TIME_SYSTEM    = UTC
MEAN_ELEMENT_THEORY = SGP/SGP4

EPOCH          = 2025-10-29T06:15:42.820992
MEAN_MOTION    = 14.13026290
ECCENTRICITY   = .0020462
INCLINATION    = 70.9166
RA_OF_ASC_NODE = 242.2752
ARG_OF_PERICENTER = 35.0336
MEAN_ANOMALY   = 325.2127

EPHEMERIS_TYPE = 0
CLASSIFICATION_TYPE = U
NORAD_CAT_ID   = 17589
ELEMENT_SET_NO = 999
REV_AT_EPOCH   = 99174
BSTAR          = -.13568E-3
MEAN_MOTION_DOT = -.302E-5
MEAN_MOTION_DDOT = 0

CCSDS_OMM_VERS = 2.0
CREATION_DATE  = 
ORIGINATOR     = 

OBJECT_NAME    = SL-14 R/B
OBJECT_ID      = 1987-038B
CENTER_NAME    = EARTH
REF_FRAME      = TEME
TIME_SYSTEM    = UTC
MEAN_ELEMENT_THEORY = SGP/SGP4

EPOCH          = 2025-10-29T09:35:05.529984
MEAN_MOTION    = 14.85190778
ECCENTRICITY   = .0018112
INCLINATION    = 82.5020
RA_OF_ASC_NODE = 60.4530
ARG_OF_PERICENTER = 236.2061
MEAN_ANOMALY   = 123.7431

EPHEMERIS_TYPE = 0
CLASSIFICATION_TYPE = U
NORAD_CAT_ID   = 17912
ELEMENT_SET_NO = 999
REV_AT_EPOCH   = 5974
BSTAR          = .99534E-4
MEAN_MOTION_DOT = .878E-5
MEAN_MOTION_DDOT = 0

CCSDS_OMM_VERS = 2.0
CREATION_DATE  = 
ORIGINATOR     = 

OBJECT_NAME    = COSMOS 1844
OBJECT_ID      = 1987-041A
CENTER_NAME    = EARTH
REF_FRAME      = TEME
TIME_SYSTEM    = UTC
MEAN_ELEMENT_THEORY = SGP/SGP4

EPOCH          = 2025-10-29T10:26:31.553952
MEAN_MOTION    = 14.14507723
ECCENTRICITY   = .0032528
INCLINATION    = 70.8976
RA_OF_ASC_NODE = 311.0186
ARG_OF_PERICENTER = 222.5616
MEAN_ANOMALY   = 137.2985

EPHEMERIS_TYPE = 0
CLASSIFICATION_TYPE = U
NORAD_CAT_ID   = 17973
ELEMENT_SET_NO = 999
REV_AT_EPOCH   = 98502
BSTAR          = .16093E-3
MEAN_MOTION_DOT = .262E-5
MEAN_MOTION_DDOT = 0

CCSDS_OMM_VERS = 2.0
CREATION_DATE  = 
ORIGINATOR     = 

OBJECT_NAME    = SL-14 R/B
OBJECT_ID      = 1987-055B
CENTER_NAME    = EARTH
REF_FRAME      = TEME
TIME_SYSTEM    = UTC
MEAN_ELEMENT_THEORY = SGP/SGP4

EPOCH          = 2025-10-29T12:48:39.542400
MEAN_MOTION    = 14.85448837
ECCENTRICITY   = .0022217
INCLINATION    = 82.4962
RA_OF_ASC_NODE = 112.6493
ARG_OF_PERICENTER = 87.4096
MEAN_ANOMALY   = 272.9663

EPHEMERIS_TYPE = 0
CLASSIFICATION_TYPE = U
NORAD_CAT_ID   = 18153
ELEMENT_SET_NO = 999
REV_AT_EPOCH   = 5046
BSTAR          = .83885E-4
MEAN_MOTION_DOT = .751E-5
MEAN_MOTION_DDOT = 0

CCSDS_OMM_VERS = 2.0
CREATION_DATE  = 
ORIGINATOR     = 

OBJECT_NAME    = COSMOS 1867
OBJECT_ID      = 1987-060A
CENTER_NAME    = EARTH
REF_FRAME      = TEME
TIME_SYSTEM    = UTC
MEAN_ELEMENT_THEORY = SGP/SGP4

EPOCH          = 2025-10-29T09:06:55.908864
MEAN_MOTION    = 14.31474875
ECCENTRICITY   = .0013779
INCLINATION    = 65.0105
RA_OF_ASC_NODE = 314.4283
ARG_OF_PERICENTER = 266.7361
MEAN_ANOMALY   = 93.2147

EPHEMERIS_TYPE = 0
CLASSIFICATION_TYPE = U
NORAD_CAT_ID   = 18187
ELEMENT_SET_NO = 999
REV_AT_EPOCH   = 114
BSTAR          = .47659E-4
MEAN_MOTION_DOT = .27E-6
MEAN_MOTION_DDOT = 0

